[{"OBJECT_NAME":"ONEWEB-0680","OBJECT_ID":"2023-068G","EPOCH":"2026-01-17T14:41:36.323808","MEAN_MOTION":13.21825375,"ECCENTRICITY":0.00018884,"INCLINATION":87.9222,"RA_OF_ASC_NODE":273.9985,"ARG_OF_PERICENTER":93.9973,"MEAN_ANOMALY":266.1377,"EPHEMERIS_TYPE":0,"CLASSIFICATION_TYPE":"U","NORAD_CAT_ID":56716,"ELEMENT_SET_NO":999,"REV_AT_EPOCH":13120,"BSTAR":-4.7691318e-5,"MEAN_MOTION_DOT":-7.0e-8,"MEAN_MOTION_DDOT":0},{"OBJECT_NAME":"ONEWEB-0681","OBJECT_ID":"2023-068H","EPOCH":"2026-01-17T10:33:58.076064","MEAN_MOTION":13.21823975,"ECCENTRICITY":0.00024921,"INCLINATION":87.9215,"RA_OF_ASC_NODE":274.0454,"ARG_OF_PERICENTER":62.513,"MEAN_ANOMALY":297.6257,"EPHEMERIS_TYPE":0,"CLASSIFICATION_TYPE":"U","NORAD_CAT_ID":56717,"ELEMENT_SET_NO":999,"REV_AT_EPOCH":13117,"BSTAR":4.24183e-5,"MEAN_MOTION_DOT":3.1e-7,"MEAN_MOTION_DDOT":0},{"OBJECT_NAME":"ONEWEB-0682","OBJECT_ID":"2023-068J","EPOCH":"2026-01-17T10:34:19.242336","MEAN_MOTION":13.15550605,"ECCENTRICITY":0.00018749,"INCLINATION":87.9006,"RA_OF_ASC_NODE":289.2863,"ARG_OF_PERICENTER":88.6762,"MEAN_ANOMALY":271.4584,"EPHEMERIS_TYPE":0,"CLASSIFICATION_TYPE":"U","NORAD_CAT_ID":56718,"ELEMENT_SET_NO":999,"REV_AT_EPOCH":12963,"BSTAR":0.00033678672,"MEAN_MOTION_DOT":1.4e-6,"MEAN_MOTION_DDOT":0},{"OBJECT_NAME":"ONEWEB-0683","OBJECT_ID":"2023-068K","EPOCH":"2026-01-17T11:05:08.446848","MEAN_MOTION":13.15549136,"ECCENTRICITY":0.00016721,"INCLINATION":87.9016,"RA_OF_ASC_NODE":289.2699,"ARG_OF_PERICENTER":83.3155,"MEAN_ANOMALY":276.8166,"EPHEMERIS_TYPE":0,"CLASSIFICATION_TYPE":"U","NORAD_CAT_ID":56719,"ELEMENT_SET_NO":999,"REV_AT_EPOCH":12960,"BSTAR":-0.00032538133,"MEAN_MOTION_DOT":-1.1e-6,"MEAN_MOTION_DDOT":0},{"OBJECT_NAME":"ONEWEB-0684","OBJECT_ID":"2023-068L","EPOCH":"2026-01-17T03:58:25.743072","MEAN_MOTION":13.15546749,"ECCENTRICITY":6.947e-5,"INCLINATION":87.9012,"RA_OF_ASC_NODE":289.3222,"ARG_OF_PERICENTER":15.7569,"MEAN_ANOMALY":344.3583,"EPHEMERIS_TYPE":0,"CLASSIFICATION_TYPE":"U","NORAD_CAT_ID":56720,"ELEMENT_SET_NO":999,"REV_AT_EPOCH":12939,"BSTAR":-0.00012047071,"MEAN_MOTION_DOT":-3.3e-7,"MEAN_MOTION_DDOT":0},{"OBJECT_NAME":"ONEWEB-0686","OBJECT_ID":"2023-068M","EPOCH":"2026-01-17T15:47:56.856480","MEAN_MOTION":13.17180687,"ECCENTRICITY":0.00012426,"INCLINATION":87.902,"RA_OF_ASC_NODE":258.7791,"ARG_OF_PERICENTER":92.7433,"MEAN_ANOMALY":267.384,"EPHEMERIS_TYPE":0,"CLASSIFICATION_TYPE":"U","NORAD_CAT_ID":56721,"ELEMENT_SET_NO":999,"REV_AT_EPOCH":13190,"BSTAR":0.00018238251,"MEAN_MOTION_DOT":8.3e-7,"MEAN_MOTION_DDOT":0},{"OBJECT_NAME":"ONEWEB-0694","OBJECT_ID":"2023-068N","EPOCH":"2026-01-17T08:33:17.532288","MEAN_MOTION":13.16593233,"ECCENTRICITY":0.00016407,"INCLINATION":87.9041,"RA_OF_ASC_NODE":258.7735,"ARG_OF_PERICENTER":94.446,"MEAN_ANOMALY":265.6858,"EPHEMERIS_TYPE":0,"CLASSIFICATION_TYPE":"U","NORAD_CAT_ID":56722,"ELEMENT_SET_NO":999,"REV_AT_EPOCH":13192,"BSTAR":0.00013153947,"MEAN_MOTION_DOT":6.3e-7,"MEAN_MOTION_DDOT":0},{"OBJECT_NAME":"ONEWEB-0696","OBJECT_ID":"2023-068P","EPOCH":"2026-01-17T12:04:27.561792","MEAN_MOTION":13.15549271,"ECCENTRICITY":0.0001429,"INCLINATION":87.9002,"RA_OF_ASC_NODE":289.305,"ARG_OF_PERICENTER":63.9778,"MEAN_ANOMALY":296.1499,"EPHEMERIS_TYPE":0,"CLASSIFICATION_TYPE":"U","NORAD_CAT_ID":56723,"ELEMENT_SET_NO":999,"REV_AT_EPOCH":12955,"BSTAR":0.00050336724,"MEAN_MOTION_DOT":2.02e-6,"MEAN_MOTION_DDOT":0},{"OBJECT_NAME":"ONEWEB-0703","OBJECT_ID":"2023-068Q","EPOCH":"2026-01-17T12:18:09.664704","MEAN_MOTION":13.15548588,"ECCENTRICITY":0.00018111,"INCLINATION":87.9004,"RA_OF_ASC_NODE":289.2846,"ARG_OF_PERICENTER":39.8966,"MEAN_ANOMALY":320.2297,"EPHEMERIS_TYPE":0,"CLASSIFICATION_TYPE":"U","NORAD_CAT_ID":56724,"ELEMENT_SET_NO":999,"REV_AT_EPOCH":12944,"BSTAR":0.00044793717,"MEAN_MOTION_DOT":1.81e-6,"MEAN_MOTION_DDOT":0},{"OBJECT_NAME":"ONEWEB-0721","OBJECT_ID":"2023-068R","EPOCH":"2026-01-17T13:51:37.486080","MEAN_MOTION":13.22457149,"ECCENTRICITY":0.00015753,"INCLINATION":86.6823,"RA_OF_ASC_NODE":133.5786,"ARG_OF_PERICENTER":106.6455,"MEAN_ANOMALY":253.4851,"EPHEMERIS_TYPE":0,"CLASSIFICATION_TYPE":"U","NORAD_CAT_ID":56725,"ELEMENT_SET_NO":999,"REV_AT_EPOCH":13803,"BSTAR":0.00024161292,"MEAN_MOTION_DOT":1.15e-6,"MEAN_MOTION_DDOT":0},{"OBJECT_NAME":"ONEWEB-0015","OBJECT_ID":"2024-188A","EPOCH":"2026-01-17T13:07:44.808960","MEAN_MOTION":13.11414232,"ECCENTRICITY":0.0002392,"INCLINATION":87.8816,"RA_OF_ASC_NODE":51.0847,"ARG_OF_PERICENTER":92.7473,"MEAN_ANOMALY":267.3928,"EPHEMERIS_TYPE":0,"CLASSIFICATION_TYPE":"U","NORAD_CAT_ID":61594,"ELEMENT_SET_NO":999,"REV_AT_EPOCH":6471,"BSTAR":0.0011787714,"MEAN_MOTION_DOT":4.3e-6,"MEAN_MOTION_DDOT":0},{"OBJECT_NAME":"ONEWEB-0687","OBJECT_ID":"2024-188B","EPOCH":"2026-01-17T11:56:22.711776","MEAN_MOTION":13.17650121,"ECCENTRICITY":0.00022878,"INCLINATION":87.9074,"RA_OF_ASC_NODE":35.8418,"ARG_OF_PERICENTER":101.6087,"MEAN_ANOMALY":258.5302,"EPHEMERIS_TYPE":0,"CLASSIFICATION_TYPE":"U","NORAD_CAT_ID":61595,"ELEMENT_SET_NO":999,"REV_AT_EPOCH":6605,"BSTAR":4.3028894e-5,"MEAN_MOTION_DOT":3.0e-7,"MEAN_MOTION_DDOT":0},{"OBJECT_NAME":"ONEWEB-0688","OBJECT_ID":"2024-188C","EPOCH":"2026-01-17T14:27:01.699200","MEAN_MOTION":13.17650964,"ECCENTRICITY":0.00030901,"INCLINATION":87.907,"RA_OF_ASC_NODE":35.8204,"ARG_OF_PERICENTER":85.8723,"MEAN_ANOMALY":274.2762,"EPHEMERIS_TYPE":0,"CLASSIFICATION_TYPE":"U","NORAD_CAT_ID":61596,"ELEMENT_SET_NO":999,"REV_AT_EPOCH":6606,"BSTAR":1.7873299e-5,"MEAN_MOTION_DOT":2.0e-7,"MEAN_MOTION_DDOT":0},{"OBJECT_NAME":"ONEWEB-0689","OBJECT_ID":"2024-188D","EPOCH":"2026-01-17T12:06:41.900832","MEAN_MOTION":13.11418735,"ECCENTRICITY":0.00019146,"INCLINATION":87.8826,"RA_OF_ASC_NODE":51.0273,"ARG_OF_PERICENTER":105.7381,"MEAN_ANOMALY":254.3959,"EPHEMERIS_TYPE":0,"CLASSIFICATION_TYPE":"U","NORAD_CAT_ID":61597,"ELEMENT_SET_NO":999,"REV_AT_EPOCH":6470,"BSTAR":-0.0013363071,"MEAN_MOTION_DOT":-4.61e-6,"MEAN_MOTION_DDOT":0},{"OBJECT_NAME":"ONEWEB-0690","OBJECT_ID":"2024-188E","EPOCH":"2026-01-17T14:11:13.910208","MEAN_MOTION":13.11419059,"ECCENTRICITY":0.00015366,"INCLINATION":87.8833,"RA_OF_ASC_NODE":51.0297,"ARG_OF_PERICENTER":72.7098,"MEAN_ANOMALY":287.4198,"EPHEMERIS_TYPE":0,"CLASSIFICATION_TYPE":"U","NORAD_CAT_ID":61598,"ELEMENT_SET_NO":999,"REV_AT_EPOCH":6489,"BSTAR":-0.00048092907,"MEAN_MOTION_DOT":-1.58e-6,"MEAN_MOTION_DDOT":0},{"OBJECT_NAME":"ONEWEB-0691","OBJECT_ID":"2024-188F","EPOCH":"2026-01-17T12:14:02.343840","MEAN_MOTION":13.11418835,"ECCENTRICITY":0.00022705,"INCLINATION":87.8837,"RA_OF_ASC_NODE":50.9436,"ARG_OF_PERICENTER":94.4276,"MEAN_ANOMALY":265.7111,"EPHEMERIS_TYPE":0,"CLASSIFICATION_TYPE":"U","NORAD_CAT_ID":61599,"ELEMENT_SET_NO":999,"REV_AT_EPOCH":6473,"BSTAR":-0.00085155928,"MEAN_MOTION_DOT":-2.89e-6,"MEAN_MOTION_DDOT":0},{"OBJECT_NAME":"ONEWEB-0692","OBJECT_ID":"2024-188G","EPOCH":"2026-01-17T14:33:12.268800","MEAN_MOTION":13.114185,"ECCENTRICITY":0.00013237,"INCLINATION":87.8816,"RA_OF_ASC_NODE":51.0664,"ARG_OF_PERICENTER":125.3937,"MEAN_ANOMALY":234.7315,"EPHEMERIS_TYPE":0,"CLASSIFICATION_TYPE":"U","NORAD_CAT_ID":61600,"ELEMENT_SET_NO":999,"REV_AT_EPOCH":6473,"BSTAR":0.0013126753,"MEAN_MOTION_DOT":4.78e-6,"MEAN_MOTION_DDOT":0},{"OBJECT_NAME":"ONEWEB-0693","OBJECT_ID":"2024-188H","EPOCH":"2026-01-17T14:44:02.176512","MEAN_MOTION":13.17647496,"ECCENTRICITY":0.00018573,"INCLINATION":87.9074,"RA_OF_ASC_NODE":35.839,"ARG_OF_PERICENTER":65.8247,"MEAN_ANOMALY":294.3079,"EPHEMERIS_TYPE":0,"CLASSIFICATION_TYPE":"U","NORAD_CAT_ID":61601,"ELEMENT_SET_NO":999,"REV_AT_EPOCH":6605,"BSTAR":3.0000414e-5,"MEAN_MOTION_DOT":2.5e-7,"MEAN_MOTION_DDOT":0},{"OBJECT_NAME":"ONEWEB-0695","OBJECT_ID":"2024-188J","EPOCH":"2026-01-17T12:09:08.787744","MEAN_MOTION":13.11418641,"ECCENTRICITY":0.00017842,"INCLINATION":87.8821,"RA_OF_ASC_NODE":51.0761,"ARG_OF_PERICENTER":114.0796,"MEAN_ANOMALY":246.0518,"EPHEMERIS_TYPE":0,"CLASSIFICATION_TYPE":"U","NORAD_CAT_ID":61602,"ELEMENT_SET_NO":999,"REV_AT_EPOCH":6471,"BSTAR":-0.0011671601,"MEAN_MOTION_DOT":-4.01e-6,"MEAN_MOTION_DDOT":0},{"OBJECT_NAME":"ONEWEB-0697","OBJECT_ID":"2024-188K","EPOCH":"2026-01-17T12:55:32.924928","MEAN_MOTION":13.11417573,"ECCENTRICITY":0.00012646,"INCLINATION":87.8817,"RA_OF_ASC_NODE":51.0595,"ARG_OF_PERICENTER":120.017,"MEAN_ANOMALY":240.1084,"EPHEMERIS_TYPE":0,"CLASSIFICATION_TYPE":"U","NORAD_CAT_ID":61603,"ELEMENT_SET_NO":999,"REV_AT_EPOCH":6470,"BSTAR":0.0016731131,"MEAN_MOTION_DOT":6.06e-6,"MEAN_MOTION_DDOT":0},{"OBJECT_NAME":"ONEWEB-0698","OBJECT_ID":"2024-188L","EPOCH":"2026-01-17T14:13:40.602720","MEAN_MOTION":13.11420216,"ECCENTRICITY":6.104e-5,"INCLINATION":87.8821,"RA_OF_ASC_NODE":51.064,"ARG_OF_PERICENTER":82.4514,"MEAN_ANOMALY":277.6684,"EPHEMERIS_TYPE":0,"CLASSIFICATION_TYPE":"U","NORAD_CAT_ID":61604,"ELEMENT_SET_NO":999,"REV_AT_EPOCH":6473,"BSTAR":-0.00011353902,"MEAN_MOTION_DOT":-2.8e-7,"MEAN_MOTION_DDOT":0},{"OBJECT_NAME":"ONEWEB-0699","OBJECT_ID":"2024-188M","EPOCH":"2026-01-17T15:19:28.605792","MEAN_MOTION":13.1037575,"ECCENTRICITY":0.00012637,"INCLINATION":87.8784,"RA_OF_ASC_NODE":66.2712,"ARG_OF_PERICENTER":115.867,"MEAN_ANOMALY":244.2588,"EPHEMERIS_TYPE":0,"CLASSIFICATION_TYPE":"U","NORAD_CAT_ID":61605,"ELEMENT_SET_NO":999,"REV_AT_EPOCH":6359,"BSTAR":0.00028336178,"MEAN_MOTION_DOT":1.12e-6,"MEAN_MOTION_DDOT":0},{"OBJECT_NAME":"ONEWEB-0700","OBJECT_ID":"2024-188N","EPOCH":"2026-01-17T15:21:52.244928","MEAN_MOTION":13.10376658,"ECCENTRICITY":0.00018892,"INCLINATION":87.8792,"RA_OF_ASC_NODE":66.1595,"ARG_OF_PERICENTER":121.8718,"MEAN_ANOMALY":238.2593,"EPHEMERIS_TYPE":0,"CLASSIFICATION_TYPE":"U","NORAD_CAT_ID":61606,"ELEMENT_SET_NO":999,"REV_AT_EPOCH":6358,"BSTAR":0.00042952046,"MEAN_MOTION_DOT":1.63e-6,"MEAN_MOTION_DDOT":0}]
